ONEWEB-0233             
1 48795U 21045AE  25017.35108133 -.00000053  00000+0 -17351-3 0  9993
2 48795  87.9082   1.9514 0001753  95.7208 264.4122 13.15547916176474
ONEWEB-0190             
1 48796U 21045AF  25017.41366579  .00000113  00000+0  26726-3 0  9992
2 48796  87.9083   1.9010 0001478 117.7420 242.3860 13.15547166176552
ONEWEB-0248             
1 48798U 21045AH  25017.36771734 -.00000069  00000+0 -21804-3 0  9995
2 48798  87.9078   1.8841 0001988 108.3033 251.8314 13.15547796176593
ONEWEB-0225             
1 48799U 21045AJ  25017.46595874  .00000065  00000+0  13830-3 0  9990
2 48799  87.9083   1.8865 0001643  98.2196 261.9121 13.15550044176612
ONEWEB-0215             
1 48800U 21045AK  25017.43584351 -.00000093  00000+0 -28208-3 0  9996
2 48800  87.9079   1.8543 0001812 111.8751 248.2572 13.15547978176485
ONEWEB-0216             
1 48801U 21045AL  25017.36929880 -.00000060  00000+0 -19361-3 0  9993
2 48801  87.9079   1.9113 0001565  84.0998 276.0310 13.15547455176488
ONEWEB-0239             
1 48802U 21045AM  25017.37405137  .00000005  00000+0 -21901-4 0  9991
2 48802  87.9089   1.9049 0002050 112.6929 247.4418 13.15546801176520
